{
  "type": "FeatureCollection",
  "features": [
    {
      "type": "Feature",
      "properties": {
        "norad_id": 35616,
        "name": "IRIDIUM 33 DEB",
        "group": "iridium-33-debris",
        "lat": -85.5360994929827,
        "lon": -71.57256646657062,
        "alt_km": 635.3800283786031,
        "timestamp": "2025-12-18T08:58:43.800150+00:00",
        "meta_object_name": "IRIDIUM 33 DEB",
        "meta_object_id": "1997-051QN",
        "meta_epoch": "2025-12-17T17:10:04.929312",
        "meta_mean_motion": 14.81938172,
        "meta_eccentricity": 0.00108889,
        "meta_inclination": 86.3539,
        "meta_ra_of_asc_node": 343.4935,
        "meta_arg_of_pericenter": 146.299,
        "meta_mean_anomaly": 213.8927,
        "meta_ephemeris_type": 0,
        "meta_classification_type": "U",
        "meta_norad_cat_id": 35616,
        "meta_element_set_no": 999,
        "meta_rev_at_epoch": 87648,
        "meta_bstar": 0.0012892148,
        "meta_mean_motion_dot": 0.00010251,
        "meta_mean_motion_ddot": 0,
        "tle_line1": "1 35616U 97051QN  25351.71533483  .00010251  00000+0  12892-2 0  9995",
        "tle_line2": "2 35616  86.3539 343.4935 0010888 146.2990 213.8927 14.81938172876483"
      },
      "geometry": {
        "type": "Point",
        "coordinates": [
          -71.57256646657062,
          -85.5360994929827
        ]
      }
    },
    {
      "type": "Feature",
      "properties": {
        "norad_id": 35618,
        "name": "IRIDIUM 33 DEB",
        "group": "iridium-33-debris",
        "lat": 20.443341250767034,
        "lon": 169.67687818491962,
        "alt_km": 737.0246661264955,
        "timestamp": "2025-12-18T08:58:43.800160+00:00",
        "meta_object_name": "IRIDIUM 33 DEB",
        "meta_object_id": "1997-051QQ",
        "meta_epoch": "2025-12-13T19:06:39.662496",
        "meta_mean_motion": 14.52305973,
        "meta_eccentricity": 0.00288889,
        "meta_inclination": 86.3427,
        "meta_ra_of_asc_node": 353.0427,
        "meta_arg_of_pericenter": 17.6332,
        "meta_mean_anomaly": 342.5869,
        "meta_ephemeris_type": 0,
        "meta_classification_type": "U",
        "meta_norad_cat_id": 35618,
        "meta_element_set_no": 999,
        "meta_rev_at_epoch": 65409,
        "meta_bstar": 0.0005678553,
        "meta_mean_motion_dot": 2.341e-05,
        "meta_mean_motion_ddot": 0,
        "tle_line1": "1 35618U 97051QQ  25347.79629239  .00002341  00000+0  56786-3 0  9997",
        "tle_line2": "2 35618  86.3427 353.0427 0028888  17.6332 342.5869 14.52305973654095"
      },
      "geometry": {
        "type": "Point",
        "coordinates": [
          169.67687818491962,
          20.443341250767034
        ]
      }
    },
    {
      "type": "Feature",
      "properties": {
        "norad_id": 35620,
        "name": "IRIDIUM 33 DEB",
        "group": "iridium-33-debris",
        "lat": -34.44837802292771,
        "lon": 37.55895066821539,
        "alt_km": 680.4824765893381,
        "timestamp": "2025-12-18T08:58:43.800170+00:00",
        "meta_object_name": "IRIDIUM 33 DEB",
        "meta_object_id": "1997-051QS",
        "meta_epoch": "2025-12-17T08:35:52.272096",
        "meta_mean_motion": 14.38205067,
        "meta_eccentricity": 0.01398919,
        "meta_inclination": 86.3905,
        "meta_ra_of_asc_node": 215.5056,
        "meta_arg_of_pericenter": 243.6139,
        "meta_mean_anomaly": 115.0644,
        "meta_ephemeris_type": 0,
        "meta_classification_type": "U",
        "meta_norad_cat_id": 35620,
        "meta_element_set_no": 999,
        "meta_rev_at_epoch": 60032,
        "meta_bstar": 0.0036336563,
        "meta_mean_motion_dot": 0.00012391,
        "meta_mean_motion_ddot": 0,
        "tle_line1": "1 35620U 97051QS  25351.35824389  .00012391  00000+0  36337-2 0  9995",
        "tle_line2": "2 35620  86.3905 215.5056 0139891 243.6139 115.0644 14.38205067600320"
      },
      "geometry": {
        "type": "Point",
        "coordinates": [
          37.55895066821539,
          -34.44837802292771
        ]
      }
    },
    {
      "type": "Feature",
      "properties": {
        "norad_id": 35622,
        "name": "IRIDIUM 33 DEB",
        "group": "iridium-33-debris",
        "lat": -36.71188679799286,
        "lon": 83.66544092322366,
        "alt_km": 556.5705588512001,
        "timestamp": "2025-12-18T08:58:43.800181+00:00",
        "meta_object_name": "IRIDIUM 33 DEB",
        "meta_object_id": "1997-051QU",
        "meta_epoch": "2025-12-14T12:14:43.972224",
        "meta_mean_motion": 15.04969242,
        "meta_eccentricity": 0.00054886,
        "meta_inclination": 86.2028,
        "meta_ra_of_asc_node": 262.7313,
        "meta_arg_of_pericenter": 323.1514,
        "meta_mean_anomaly": 209.8665,
        "meta_ephemeris_type": 0,
        "meta_classification_type": "U",
        "meta_norad_cat_id": 35622,
        "meta_element_set_no": 999,
        "meta_rev_at_epoch": 87386,
        "meta_bstar": 0.0048535985,
        "meta_mean_motion_dot": 0.00069411,
        "meta_mean_motion_ddot": 0,
        "tle_line1": "1 35622U 97051QU  25348.51023116  .00069411  00000+0  48536-2 0  9999",
        "tle_line2": "2 35622  86.2028 262.7313 0005488 323.1514 209.8665 15.04969242873864"
      },
      "geometry": {
        "type": "Point",
        "coordinates": [
          83.66544092322366,
          -36.71188679799286
        ]
      }
    },
    {
      "type": "Feature",
      "properties": {
        "norad_id": 35628,
        "name": "IRIDIUM 33 DEB",
        "group": "iridium-33-debris",
        "lat": 6.567574655043682,
        "lon": 6.9835393419097915,
        "alt_km": 665.675201040036,
        "timestamp": "2025-12-18T08:58:43.800191+00:00",
        "meta_object_name": "IRIDIUM 33 DEB",
        "meta_object_id": "1997-051RA",
        "meta_epoch": "2025-12-16T07:51:32.046336",
        "meta_mean_motion": 14.67635018,
        "meta_eccentricity": 0.00100441,
        "meta_inclination": 86.3573,
        "meta_ra_of_asc_node": 7.4758,
        "meta_arg_of_pericenter": 329.6051,
        "meta_mean_anomaly": 30.458,
        "meta_ephemeris_type": 0,
        "meta_classification_type": "U",
        "meta_norad_cat_id": 35628,
        "meta_element_set_no": 999,
        "meta_rev_at_epoch": 86499,
        "meta_bstar": 0.00094948025,
        "meta_mean_motion_dot": 5.421e-05,
        "meta_mean_motion_ddot": 0,
        "tle_line1": "1 35628U 97051RA  25350.32745424  .00005421  00000+0  94948-3 0  9990",
        "tle_line2": "2 35628  86.3573   7.4758 0010044 329.6051  30.4580 14.67635018864991"
      },
      "geometry": {
        "type": "Point",
        "coordinates": [
          6.9835393419097915,
          6.567574655043682
        ]
      }
    },
    {
      "type": "Feature",
      "properties": {
        "norad_id": 35631,
        "name": "IRIDIUM 33 DEB",
        "group": "iridium-33-debris",
        "lat": -31.688151352445082,
        "lon": -159.2022152906548,
        "alt_km": 745.3980066915874,
        "timestamp": "2025-12-18T08:58:43.800201+00:00",
        "meta_object_name": "IRIDIUM 33 DEB",
        "meta_object_id": "1997-051RD",
        "meta_epoch": "2025-12-17T02:23:33.513216",
        "meta_mean_motion": 14.47323174,
        "meta_eccentricity": 0.00191499,
        "meta_inclination": 86.3669,
        "meta_ra_of_asc_node": 19.0985,
        "meta_arg_of_pericenter": 104.9158,
        "meta_mean_anomaly": 310.5558,
        "meta_ephemeris_type": 0,
        "meta_classification_type": "U",
        "meta_norad_cat_id": 35631,
        "meta_element_set_no": 999,
        "meta_rev_at_epoch": 87260,
        "meta_bstar": 0.00028519596,
        "meta_mean_motion_dot": 1.066e-05,
        "meta_mean_motion_ddot": 0,
        "tle_line1": "1 35631U 97051RD  25351.09969344  .00001066  00000+0  28520-3 0  9992",
        "tle_line2": "2 35631  86.3669  19.0985 0019149 104.9158 310.5558 14.47323174872608"
      },
      "geometry": {
        "type": "Point",
        "coordinates": [
          -159.2022152906548,
          -31.688151352445082
        ]
      }
    },
    {
      "type": "Feature",
      "properties": {
        "norad_id": 35680,
        "name": "IRIDIUM 33 DEB",
        "group": "iridium-33-debris",
        "lat": 10.144008588464969,
        "lon": 19.727051816969677,
        "alt_km": 858.8504784455845,
        "timestamp": "2025-12-18T08:58:43.800211+00:00",
        "meta_object_name": "IRIDIUM 33 DEB",
        "meta_object_id": "1997-051RJ",
        "meta_epoch": "2025-12-17T20:16:19.922592",
        "meta_mean_motion": 14.21000805,
        "meta_eccentricity": 0.01505036,
        "meta_inclination": 86.1025,
        "meta_ra_of_asc_node": 19.2625,
        "meta_arg_of_pericenter": 262.1515,
        "meta_mean_anomaly": 279.7609,
        "meta_ephemeris_type": 0,
        "meta_classification_type": "U",
        "meta_norad_cat_id": 35680,
        "meta_element_set_no": 999,
        "meta_rev_at_epoch": 60773,
        "meta_bstar": 0.0028027984,
        "meta_mean_motion_dot": 6.829e-05,
        "meta_mean_motion_ddot": 0,
        "tle_line1": "1 35680U 97051RJ  25351.84467503  .00006829  00000+0  28028-2 0  9993",
        "tle_line2": "2 35680  86.1025  19.2625 0150503 262.1515 279.7609 14.21000805607731"
      },
      "geometry": {
        "type": "Point",
        "coordinates": [
          19.727051816969677,
          10.144008588464969
        ]
      }
    }
  ]
}